[{"OBJECT_NAME":"STARLINK-30455","OBJECT_ID":"2023-148H","EPOCH":"2026-03-09T04:56:40.190208","MEAN_MOTION":15.30188282,"ECCENTRICITY":0.00011754,"INCLINATION":53.1624,"RA_OF_ASC_NODE":26.7281,"ARG_OF_PERICENTER":82.8128,"MEAN_ANOMALY":277.3006,"EPHEMERIS_TYPE":0,"CLASSIFICATION_TYPE":"U","NORAD_CAT_ID":57942,"ELEMENT_SET_NO":999,"REV_AT_EPOCH":13834,"BSTAR":-1.3747476e-5,"MEAN_MOTION_DOT":-7.66e-6,"MEAN_MOTION_DDOT":0},{"OBJECT_NAME":"ARCSTONE","OBJECT_ID":"2025-135N","EPOCH":"2026-03-09T21:21:29.017152","MEAN_MOTION":15.28638458,"ECCENTRICITY":0.00041199,"INCLINATION":97.4495,"RA_OF_ASC_NODE":185.9194,"ARG_OF_PERICENTER":166.7863,"MEAN_ANOMALY":193.3485,"EPHEMERIS_TYPE":0,"CLASSIFICATION_TYPE":"U","NORAD_CAT_ID":64540,"ELEMENT_SET_NO":999,"REV_AT_EPOCH":3984,"BSTAR":0.00094899777,"MEAN_MOTION_DOT":0.00026427,"MEAN_MOTION_DDOT":0}]
